{"fetched_at":"2026-03-29T02:12:04Z","count":15717,"tles":[{"name":"USA 270","line1":"1 41744U 16052A   26087.29397968  .00000003  00000+0  00000+0 0  9991","line2":"2 41744   3.9900  78.2051 0003828 307.3529  79.8887  1.00332721 27326","category":"Military"}]}