{
  "norad_id": 41744,
  "name": "USA 270",
  "history": [
    {
      "epoch": "2026-03-28T07:03:19.844352",
      "apogee_km": 35785.65515819281,
      "perigee_km": 35753.38691120144,
      "latitude_deg": -3.7191073561243035,
      "longitude_deg": -177.37795072002336,
      "semi_major_axis_km": 42147.65803469713,
      "eccentricity": 0.0003828,
      "inclination_deg": 3.99,
      "raan_deg": 78.2051,
      "arg_perigee_deg": 307.3529,
      "mean_anomaly_deg": 79.8887,
      "mean_motion_rev_day": 1.00332721
    }
  ]
}